STARLINK-32412          
1 61680U 24193V   26068.36743577  .00004126  00000+0  15132-3 0  9991
2 61680  53.1592  92.7577 0001390 103.1881 256.9275 15.30208553 76472
2025-313BD              
1 67299U 25313BD  26068.62968741  .00081010  00000+0  27634-2 0  9995
2 67299  97.3970 145.2850 0007287 333.4514  26.6352 15.30002360 10838
